SL-14 R/B               
1 21423U 91042B   26038.10074091  .00000506  00000+0  61011-4 0  9992
2 21423  82.4899 248.8735 0016683 346.7344  13.3429 14.81800423848548
ERS-1                   
1 21574U 91050A   26038.45982739  .00000451  00000+0  15907-3 0  9994
2 21574  98.7897  55.9342 0030945 292.7361  67.0557 14.39424405811385
ARIANE 40 R/B           
1 21610U 91050F   26038.16656989  .00000421  00000+0  13866-3 0  9997
2 21610  98.2077  91.5389 0003713 149.2324 210.9085 14.42870815814591
INTERCOSMOS 25          
1 21819U 91086A   26038.27472434  .00001206  00000+0  23397-3 0  9992
2 21819  82.6086 328.3874 1486698 182.4558 176.8588 12.11915407493003
SL-8 R/B                
1 21876U 92008B   26038.19092538  .00000063  00000+0  49030-4 0  9997
2 21876  82.9267 290.4669 0033757 218.3696 253.5748 13.75969598705228
SL-8 R/B                
1 21938U 92020B   26038.43243137  .00000140  00000+0  12916-3 0  9998
2 21938  82.9327 176.2197 0029379  24.7305  35.2779 13.75544905696973
USA 81                  
1 21949U 92023A   26038.41029140  .00000291  00000+0  10044-3 0  9994
2 21949  85.0120 148.9002 0002558 104.6565 255.4911 14.32356696 90454
COSMOS 2219             
1 22219U 92076A   26038.45713932 -.00000128  00000+0 -42146-4 0  9996
2 22219  71.0585  81.2724 0020388 248.7085 111.1860 14.14076716714101
SL-16 R/B               
1 22220U 92076B   26038.06672794  .00000173  00000+0  11011-3 0  9999
2 22220  70.9980 252.8814 0011604 150.8095 323.8049 14.16855283717493
COSMOS 2221             
1 22236U 92080A   26038.20672743  .00002940  00000+0  25908-3 0  9995
2 22236  82.5058 308.2744 0012999 299.3719  60.6204 14.96078512776239
SL-16 R/B               
1 22285U 92093B   26038.49264104 -.00000138  00000+0 -46064-4 0  9998
2 22285  71.0201  67.6598 0005114 325.2803  34.7985 14.15441111708887
COSMOS 2228             
1 22286U 92094A   26038.44352692  .00002883  00000+0  24712-3 0  9997
2 22286  82.5156 266.2738 0019153  46.8569 313.4251 14.97052244771530
